{
"type": "FeatureCollection",
"name": "final_anomaly_points",
"crs": { "type": "name", "properties": { "name": "urn:ogc:def:crs:OGC:1.3:CRS84" } },
"features": [
{ "type": "Feature", "properties": { "guard_id": "000", "timestamp": "2008-10-23T04:08:07", "latitude": 39.995777, "longitude": 116.286798, "altitude_ft": 716, "time_gap_seconds": 3772.0, "distance_from_previous_m": 1652.6691387785393, "speed_kmh": 1.5773088281025296, "gps_jump": false, "distance_to_road_m": 10.987361234294788, "road_match_status": "ACCEPTABLE", "highway": "service", "maxspeed": null, "length": 146.0, "long_time_gap": true, "high_speed": false, "large_road_deviation": false, "gps_jump_flag": 0, "anomaly_signal_count": 1, "extreme_speed": false, "very_high_speed": false, "extreme_road_deviation": false, "very_large_road_deviation": false, "critical_time_gap": true, "high_time_gap": true, "severity": "MEDIUM", "rule_anomaly_score": 0.25, "ml_anomaly": true, "ml_anomaly_score_raw": 0.77868106739978193, "ml_anomaly_score": 0.83096507517168339, "final_risk_score": 0.63489303537855701, "is_anomaly": true, "anomaly_reasons": [ "LONG_GPS_GAP", "ML_ANOMALY" ], "rule_flag": true, "ml_flag": true, "session_break": true, "session_number": 2, "patrol_id": "000_PATROL_0002", "anomaly_types": [ "LONG_TIME_GAP" ], "median_speed_kmh": 7.2993050808918429, "median_time_gap_seconds": 5.0, "median_road_distance_m": 7.1863407943762212, "speed_deviation_kmh": 5.7219962527893138, "time_gap_deviation_seconds": 3767.0, "road_distance_deviation_m": 3.8010204399185668, "ml_prediction": -1, "hybrid_risk_score": 0.52117258377512565, "model_agreement": false, "hybrid_severity": "MEDIUM", "incident_id": "000_INC_0002", "rule_anomaly_flag": false, "ml_anomaly_flag": true, "rule_ml_agreement": false, "anomaly_reason": "Large Time Gap, Large Distance Jump", "tuned_rule_score": 0.5, "ml_anomaly_label": -1, "ml_score_normalized": 1.0, "hybrid_anomaly_score": 0.75, "risk_level": "Critical", "detection_category": "Rule + ML", "tuned_rule_score_v2": 0.5, "far_from_road": false, "road_deviation_group": 1, "sustained_far_from_road": false, "final_rule_score": 0.5, "final_hybrid_score": 0.75, "final_risk_level": "Critical", "final_anomaly": true }, "geometry": { "type": "Point", "coordinates": [ 116.286798, 39.995777 ] } },
{ "type": "Feature", "properties": { "guard_id": "000", "timestamp": "2008-10-23T04:08:12", "latitude": 39.996832, "longitude": 116.285446, "altitude_ft": 276, "time_gap_seconds": 5.0, "distance_from_previous_m": 164.47746902079876, "speed_kmh": 118.42377769497513, "gps_jump": false, "distance_to_road_m": 1.5067079636752525, "road_match_status": "GOOD", "highway": "secondary", "maxspeed": null, "length": 217.0, "long_time_gap": false, "high_speed": true, "large_road_deviation": false, "gps_jump_flag": 0, "anomaly_signal_count": 1, "extreme_speed": true, "very_high_speed": true, "extreme_road_deviation": false, "very_large_road_deviation": false, "critical_time_gap": false, "high_time_gap": false, "severity": "MEDIUM", "rule_anomaly_score": 0.25, "ml_anomaly": true, "ml_anomaly_score_raw": 0.73002025221137246, "ml_anomaly_score": 0.74926700616543318, "final_risk_score": 0.55093264726709179, "is_anomaly": true, "anomaly_reasons": [ "HIGH_SPEED", "ML_ANOMALY" ], "rule_flag": true, "ml_flag": true, "session_break": false, "session_number": 2, "patrol_id": "000_PATROL_0002", "anomaly_types": [ "ABNORMAL_SPEED" ], "median_speed_kmh": 7.2993050808918429, "median_time_gap_seconds": 5.0, "median_road_distance_m": 7.1863407943762212, "speed_deviation_kmh": 111.12447261408329, "time_gap_deviation_seconds": 0.0, "road_distance_deviation_m": 5.6796328307009691, "ml_prediction": -1, "hybrid_risk_score": 0.47895932397681085, "model_agreement": false, "hybrid_severity": "MEDIUM", "incident_id": "000_INC_0003", "rule_anomaly_flag": false, "ml_anomaly_flag": true, "rule_ml_agreement": false, "anomaly_reason": "High Speed, Large Distance Jump", "tuned_rule_score": 0.5, "ml_anomaly_label": -1, "ml_score_normalized": 0.83055874055050438, "hybrid_anomaly_score": 0.66527937027525219, "risk_level": "High", "detection_category": "Rule + ML", "tuned_rule_score_v2": 0.5, "far_from_road": false, "road_deviation_group": 1, "sustained_far_from_road": false, "final_rule_score": 0.5, "final_hybrid_score": 0.66527937027525219, "final_risk_level": "High", "final_anomaly": true }, "geometry": { "type": "Point", "coordinates": [ 116.285446, 39.996832 ] } },
{ "type": "Feature", "properties": { "guard_id": "000", "timestamp": "2008-10-23T04:08:42", "latitude": 39.984397, "longitude": 116.299292, "altitude_ft": 931, "time_gap_seconds": 30.0, "distance_from_previous_m": 1817.8931126799523, "speed_kmh": 218.14717352159428, "gps_jump": true, "distance_to_road_m": 6.0306982901841097, "road_match_status": "GOOD", "highway": "tertiary", "maxspeed": null, "length": 68.0, "long_time_gap": false, "high_speed": true, "large_road_deviation": false, "gps_jump_flag": 1, "anomaly_signal_count": 2, "extreme_speed": true, "very_high_speed": true, "extreme_road_deviation": false, "very_large_road_deviation": false, "critical_time_gap": false, "high_time_gap": false, "severity": "HIGH", "rule_anomaly_score": 0.5, "ml_anomaly": true, "ml_anomaly_score_raw": 0.81191151631512404, "ml_anomaly_score": 0.82482088398825382, "final_risk_score": 0.8, "is_anomaly": true, "anomaly_reasons": [ "HIGH_SPEED", "GPS_JUMP", "ML_ANOMALY" ], "rule_flag": true, "ml_flag": true, "session_break": false, "session_number": 2, "patrol_id": "000_PATROL_0002", "anomaly_types": [ "GPS_JUMP", "ABNORMAL_SPEED" ], "median_speed_kmh": 7.2993050808918429, "median_time_gap_seconds": 5.0, "median_road_distance_m": 7.1863407943762212, "speed_deviation_kmh": 210.84786844070243, "time_gap_deviation_seconds": 25.0, "road_distance_deviation_m": 1.1556425041921115, "ml_prediction": -1, "hybrid_risk_score": 0.7, "model_agreement": true, "hybrid_severity": "HIGH", "incident_id": "000_INC_0004", "rule_anomaly_flag": true, "ml_anomaly_flag": true, "rule_ml_agreement": true, "anomaly_reason": "High Speed, Large Distance Jump", "tuned_rule_score": 0.5, "ml_anomaly_label": -1, "ml_score_normalized": 0.98725698777116566, "hybrid_anomaly_score": 0.74362849388558283, "risk_level": "Critical", "detection_category": "Rule + ML", "tuned_rule_score_v2": 0.5, "far_from_road": false, "road_deviation_group": 1, "sustained_far_from_road": false, "final_rule_score": 0.5, "final_hybrid_score": 0.74362849388558283, "final_risk_level": "Critical", "final_anomaly": true }, "geometry": { "type": "Point", "coordinates": [ 116.299292, 39.984397 ] } },
{ "type": "Feature", "properties": { "guard_id": "000", "timestamp": "2008-10-23T04:11:22", "latitude": 39.983841, "longitude": 116.299902, "altitude_ft": 818, "time_gap_seconds": 5.0, "distance_from_previous_m": 104.27858319274689, "speed_kmh": 75.080579898777756, "gps_jump": false, "distance_to_road_m": 0.94174449810328098, "road_match_status": "GOOD", "highway": "tertiary_link", "maxspeed": null, "length": 60.0, "long_time_gap": false, "high_speed": true, "large_road_deviation": false, "gps_jump_flag": 0, "anomaly_signal_count": 1, "extreme_speed": true, "very_high_speed": true, "extreme_road_deviation": false, "very_large_road_deviation": false, "critical_time_gap": false, "high_time_gap": false, "severity": "MEDIUM", "rule_anomaly_score": 0.25, "ml_anomaly": true, "ml_anomaly_score_raw": 0.69516601684403201, "ml_anomaly_score": 0.71147564482786807, "final_risk_score": 0.52645653523899971, "is_anomaly": true, "anomaly_reasons": [ "HIGH_SPEED", "ML_ANOMALY" ], "rule_flag": true, "ml_flag": true, "session_break": false, "session_number": 2, "patrol_id": "000_PATROL_0002", "anomaly_types": [ ], "median_speed_kmh": 7.2993050808918429, "median_time_gap_seconds": 5.0, "median_road_distance_m": 7.1863407943762212, "speed_deviation_kmh": 67.781274817885915, "time_gap_deviation_seconds": 0.0, "road_distance_deviation_m": 6.24459629627294, "ml_prediction": -1, "hybrid_risk_score": 0.44872327291732073, "model_agreement": false, "hybrid_severity": "MEDIUM", "incident_id": "000_INC_0004", "rule_anomaly_flag": false, "ml_anomaly_flag": true, "rule_ml_agreement": false, "anomaly_reason": "Large Distance Jump", "tuned_rule_score": 0.25, "ml_anomaly_label": -1, "ml_score_normalized": 0.75217970492289199, "hybrid_anomaly_score": 0.50108985246144599, "risk_level": "High", "detection_category": "Rule + ML", "tuned_rule_score_v2": 0.25, "far_from_road": false, "road_deviation_group": 1, "sustained_far_from_road": false, "final_rule_score": 0.25, "final_hybrid_score": 0.50108985246144599, "final_risk_level": "High", "final_anomaly": true }, "geometry": { "type": "Point", "coordinates": [ 116.299902, 39.983841 ] } },
{ "type": "Feature", "properties": { "guard_id": "000", "timestamp": "2008-10-23T09:42:25", "latitude": 40.004775, "longitude": 116.320158, "altitude_ft": 105, "time_gap_seconds": 18453.0, "distance_from_previous_m": 686.98949909659393, "speed_kmh": 0.13402493885805766, "gps_jump": false, "distance_to_road_m": 0.0076362369313939873, "road_match_status": "GOOD", "highway": "footway", "maxspeed": null, "length": 289.0, "long_time_gap": true, "high_speed": false, "large_road_deviation": false, "gps_jump_flag": 0, "anomaly_signal_count": 1, "extreme_speed": false, "very_high_speed": false, "extreme_road_deviation": false, "very_large_road_deviation": false, "critical_time_gap": true, "high_time_gap": true, "severity": "MEDIUM", "rule_anomaly_score": 0.25, "ml_anomaly": true, "ml_anomaly_score_raw": 0.78926706104829025, "ml_anomaly_score": 0.82015883961243063, "final_risk_score": 0.6344622149503657, "is_anomaly": true, "anomaly_reasons": [ "LONG_GPS_GAP", "ML_ANOMALY" ], "rule_flag": true, "ml_flag": true, "session_break": true, "session_number": 3, "patrol_id": "000_PATROL_0003", "anomaly_types": [ "LONG_TIME_GAP" ], "median_speed_kmh": 7.2993050808918429, "median_time_gap_seconds": 5.0, "median_road_distance_m": 7.1863407943762212, "speed_deviation_kmh": 7.1652801420337848, "time_gap_deviation_seconds": 18448.0, "road_distance_deviation_m": 7.1787045574448269, "ml_prediction": -1, "hybrid_risk_score": 0.53035593383569413, "model_agreement": false, "hybrid_severity": "MEDIUM", "incident_id": "000_INC_0007", "rule_anomaly_flag": false, "ml_anomaly_flag": true, "rule_ml_agreement": false, "anomaly_reason": "Large Time Gap, Large Distance Jump", "tuned_rule_score": 0.5, "ml_anomaly_label": -1, "ml_score_normalized": 0.97758793830331969, "hybrid_anomaly_score": 0.73879396915165985, "risk_level": "Critical", "detection_category": "Rule + ML", "tuned_rule_score_v2": 0.5, "far_from_road": false, "road_deviation_group": 1, "sustained_far_from_road": false, "final_rule_score": 0.5, "final_hybrid_score": 0.73879396915165985, "final_risk_level": "Critical", "final_anomaly": true }, "geometry": { "type": "Point", "coordinates": [ 116.320158, 40.004775 ] } },
{ "type": "Feature", "properties": { "guard_id": "000", "timestamp": "2008-10-23T10:02:04", "latitude": 40.009351, "longitude": 116.321916, "altitude_ft": 158, "time_gap_seconds": 338.0, "distance_from_previous_m": 27.470228354682668, "speed_kmh": 0.29258231383685679, "gps_jump": false, "distance_to_road_m": 4.7931115367122619, "road_match_status": "GOOD", "highway": "residential", "maxspeed": null, "length": 535.0, "long_time_gap": true, "high_speed": false, "large_road_deviation": false, "gps_jump_flag": 0, "anomaly_signal_count": 1, "extreme_speed": false, "very_high_speed": false, "extreme_road_deviation": false, "very_large_road_deviation": false, "critical_time_gap": false, "high_time_gap": true, "severity": "MEDIUM", "rule_anomaly_score": 0.25, "ml_anomaly": true, "ml_anomaly_score_raw": 0.60948395601209793, "ml_anomaly_score": 0.65723930476008752, "final_risk_score": 0.44928621450699691, "is_anomaly": true, "anomaly_reasons": [ "LONG_GPS_GAP", "ML_ANOMALY" ], "rule_flag": true, "ml_flag": true, "session_break": false, "session_number": 3, "patrol_id": "000_PATROL_0003", "anomaly_types": [ "LONG_TIME_GAP" ], "median_speed_kmh": 7.2993050808918429, "median_time_gap_seconds": 5.0, "median_road_distance_m": 7.1863407943762212, "speed_deviation_kmh": 7.0067227670549865, "time_gap_deviation_seconds": 333.0, "road_distance_deviation_m": 2.3932292576639593, "ml_prediction": -1, "hybrid_risk_score": 0.37439408052814427, "model_agreement": false, "hybrid_severity": "LOW", "incident_id": "000_INC_0008", "rule_anomaly_flag": false, "ml_anomaly_flag": true, "rule_ml_agreement": false, "anomaly_reason": "Large Time Gap", "tuned_rule_score": 0.25, "ml_anomaly_label": -1, "ml_score_normalized": 0.63969389123355236, "hybrid_anomaly_score": 0.44484694561677618, "risk_level": "Medium", "detection_category": "Rule + ML", "tuned_rule_score_v2": 0.25, "far_from_road": false, "road_deviation_group": 1, "sustained_far_from_road": false, "final_rule_score": 0.25, "final_hybrid_score": 0.44484694561677618, "final_risk_level": "Medium", "final_anomaly": true }, "geometry": { "type": "Point", "coordinates": [ 116.321916, 40.009351 ] } },
{ "type": "Feature", "properties": { "guard_id": "000", "timestamp": "2008-10-23T10:07:21", "latitude": 40.007462, "longitude": 116.319493, "altitude_ft": 132, "time_gap_seconds": 2.0, "distance_from_previous_m": 1.1589033060208542, "speed_kmh": 2.0860259508375378, "gps_jump": false, "distance_to_road_m": 71.930131543052042, "road_match_status": "VERY_FAR", "highway": "residential", "maxspeed": null, "length": 449.0, "long_time_gap": false, "high_speed": false, "large_road_deviation": true, "gps_jump_flag": 0, "anomaly_signal_count": 1, "extreme_speed": false, "very_high_speed": false, "extreme_road_deviation": false, "very_large_road_deviation": false, "critical_time_gap": false, "high_time_gap": false, "severity": "LOW", "rule_anomaly_score": 0.25, "ml_anomaly": true, "ml_anomaly_score_raw": 0.584832826822408, "ml_anomaly_score": 0.58398493611204227, "final_risk_score": 0.3876635450378656, "is_anomaly": false, "anomaly_reasons": [ "ROAD_DEVIATION", "ML_ANOMALY" ], "rule_flag": true, "ml_flag": true, "session_break": false, "session_number": 3, "patrol_id": "000_PATROL_0003", "anomaly_types": [ "ROUTE_DEVIATION" ], "median_speed_kmh": 7.2993050808918429, "median_time_gap_seconds": 5.0, "median_road_distance_m": 7.1863407943762212, "speed_deviation_kmh": 5.2132791300543051, "time_gap_deviation_seconds": 3.0, "road_distance_deviation_m": 64.743790748675821, "ml_prediction": -1, "hybrid_risk_score": 0.35300922462761941, "model_agreement": false, "hybrid_severity": "LOW", "incident_id": null, "rule_anomaly_flag": false, "ml_anomaly_flag": true, "rule_ml_agreement": false, "anomaly_reason": "Far From Road", "tuned_rule_score": 0.25, "ml_anomaly_label": -1, "ml_score_normalized": 0.48776481096419078, "hybrid_anomaly_score": 0.36888240548209539, "risk_level": "Medium", "detection_category": "Rule + ML", "tuned_rule_score_v2": 0.25, "far_from_road": true, "road_deviation_group": 2, "sustained_far_from_road": true, "final_rule_score": 0.25, "final_hybrid_score": 0.36888240548209539, "final_risk_level": "Medium", "final_anomaly": true }, "geometry": { "type": "Point", "coordinates": [ 116.319493, 40.007462 ] } },
{ "type": "Feature", "properties": { "guard_id": "000", "timestamp": "2008-10-23T10:09:26", "latitude": 40.007272, "longitude": 116.319756, "altitude_ft": 129, "time_gap_seconds": 10.0, "distance_from_previous_m": 70.117012370525444, "speed_kmh": 25.24212445338916, "gps_jump": false, "distance_to_road_m": 64.207894103510512, "road_match_status": "VERY_FAR", "highway": "service", "maxspeed": null, "length": 161.0, "long_time_gap": false, "high_speed": true, "large_road_deviation": true, "gps_jump_flag": 0, "anomaly_signal_count": 2, "extreme_speed": false, "very_high_speed": false, "extreme_road_deviation": false, "very_large_road_deviation": false, "critical_time_gap": false, "high_time_gap": false, "severity": "MEDIUM", "rule_anomaly_score": 0.5, "ml_anomaly": true, "ml_anomaly_score_raw": 0.69184666331061684, "ml_anomaly_score": 0.70444095016275254, "final_risk_score": 0.64164315229286428, "is_anomaly": true, "anomaly_reasons": [ "ROAD_DEVIATION", "ML_ANOMALY" ], "rule_flag": true, "ml_flag": true, "session_break": false, "session_number": 3, "patrol_id": "000_PATROL_0003", "anomaly_types": [ "ROUTE_DEVIATION" ], "median_speed_kmh": 7.2993050808918429, "median_time_gap_seconds": 5.0, "median_road_distance_m": 7.1863407943762212, "speed_deviation_kmh": 17.942819372497318, "time_gap_deviation_seconds": 5.0, "road_distance_deviation_m": 57.021553309134291, "ml_prediction": -1, "hybrid_risk_score": 0.59584373354820053, "model_agreement": true, "hybrid_severity": "MEDIUM", "incident_id": "000_INC_0009", "rule_anomaly_flag": true, "ml_anomaly_flag": true, "rule_ml_agreement": true, "anomaly_reason": "Far From Road", "tuned_rule_score": 0.25, "ml_anomaly_label": -1, "ml_score_normalized": 0.73758979431180238, "hybrid_anomaly_score": 0.49379489715590119, "risk_level": "Medium", "detection_category": "Rule + ML", "tuned_rule_score_v2": 0.0, "far_from_road": false, "road_deviation_group": 3, "sustained_far_from_road": false, "final_rule_score": 0.0, "final_hybrid_score": 0.36879489715590119, "final_risk_level": "Medium", "final_anomaly": true }, "geometry": { "type": "Point", "coordinates": [ 116.319756, 40.007272 ] } },
{ "type": "Feature", "properties": { "guard_id": "000", "timestamp": "2008-10-23T10:09:41", "latitude": 40.007428, "longitude": 116.319432, "altitude_ft": 130, "time_gap_seconds": 10.0, "distance_from_previous_m": 22.024635430080124, "speed_kmh": 7.9288687548288452, "gps_jump": false, "distance_to_road_m": 72.83266447192014, "road_match_status": "VERY_FAR", "highway": "path", "maxspeed": null, "length": 54.0, "long_time_gap": false, "high_speed": false, "large_road_deviation": true, "gps_jump_flag": 0, "anomaly_signal_count": 1, "extreme_speed": false, "very_high_speed": false, "extreme_road_deviation": false, "very_large_road_deviation": false, "critical_time_gap": false, "high_time_gap": false, "severity": "LOW", "rule_anomaly_score": 0.25, "ml_anomaly": true, "ml_anomaly_score_raw": 0.624486552384658, "ml_anomaly_score": 0.6168632087268463, "final_risk_score": 0.38051638375547914, "is_anomaly": false, "anomaly_reasons": [ "ROAD_DEVIATION", "ML_ANOMALY" ], "rule_flag": true, "ml_flag": true, "session_break": false, "session_number": 3, "patrol_id": "000_PATROL_0003", "anomaly_types": [ "ROUTE_DEVIATION" ], "median_speed_kmh": 7.2993050808918429, "median_time_gap_seconds": 5.0, "median_road_distance_m": 7.1863407943762212, "speed_deviation_kmh": 0.6295636739370023, "time_gap_deviation_seconds": 5.0, "road_distance_deviation_m": 65.646323677543919, "ml_prediction": -1, "hybrid_risk_score": 0.38740883368984186, "model_agreement": false, "hybrid_severity": "LOW", "incident_id": null, "rule_anomaly_flag": false, "ml_anomaly_flag": true, "rule_ml_agreement": false, "anomaly_reason": "Far From Road", "tuned_rule_score": 0.25, "ml_anomaly_label": -1, "ml_score_normalized": 0.55595413279442951, "hybrid_anomaly_score": 0.40297706639721476, "risk_level": "Medium", "detection_category": "Rule + ML", "tuned_rule_score_v2": 0.25, "far_from_road": true, "road_deviation_group": 4, "sustained_far_from_road": true, "final_rule_score": 0.25, "final_hybrid_score": 0.40297706639721476, "final_risk_level": "Medium", "final_anomaly": true }, "geometry": { "type": "Point", "coordinates": [ 116.319432, 40.007428 ] } },
{ "type": "Feature", "properties": { "guard_id": "000", "timestamp": "2008-10-23T10:10:31", "latitude": 40.007288, "longitude": 116.319088, "altitude_ft": 125, "time_gap_seconds": 25.0, "distance_from_previous_m": 34.344451779707818, "speed_kmh": 4.9456010562779262, "gps_jump": false, "distance_to_road_m": 70.915213230068204, "road_match_status": "VERY_FAR", "highway": "service", "maxspeed": null, "length": 161.0, "long_time_gap": false, "high_speed": false, "large_road_deviation": true, "gps_jump_flag": 0, "anomaly_signal_count": 1, "extreme_speed": false, "very_high_speed": false, "extreme_road_deviation": false, "very_large_road_deviation": false, "critical_time_gap": false, "high_time_gap": false, "severity": "MEDIUM", "rule_anomaly_score": 0.25, "ml_anomaly": true, "ml_anomaly_score_raw": 0.6419280774990177, "ml_anomaly_score": 0.66348304674541236, "final_risk_score": 0.41201391841008961, "is_anomaly": true, "anomaly_reasons": [ "ROAD_DEVIATION", "ML_ANOMALY" ], "rule_flag": true, "ml_flag": true, "session_break": false, "session_number": 3, "patrol_id": "000_PATROL_0003", "anomaly_types": [ "ROUTE_DEVIATION" ], "median_speed_kmh": 7.2993050808918429, "median_time_gap_seconds": 5.0, "median_road_distance_m": 7.1863407943762212, "speed_deviation_kmh": 2.3537040246139167, "time_gap_deviation_seconds": 20.0, "road_distance_deviation_m": 63.728872435691983, "ml_prediction": -1, "hybrid_risk_score": 0.40253935766648641, "model_agreement": false, "hybrid_severity": "MEDIUM", "incident_id": "000_INC_0009", "rule_anomaly_flag": false, "ml_anomaly_flag": true, "rule_ml_agreement": false, "anomaly_reason": "Far From Road", "tuned_rule_score": 0.25, "ml_anomaly_label": -1, "ml_score_normalized": 0.65264337117279303, "hybrid_anomaly_score": 0.45132168558639651, "risk_level": "Medium", "detection_category": "Rule + ML", "tuned_rule_score_v2": 0.25, "far_from_road": true, "road_deviation_group": 6, "sustained_far_from_road": true, "final_rule_score": 0.25, "final_hybrid_score": 0.45132168558639651, "final_risk_level": "Medium", "final_anomaly": true }, "geometry": { "type": "Point", "coordinates": [ 116.319088, 40.007288 ] } },
{ "type": "Feature", "properties": { "guard_id": "000", "timestamp": "2008-10-23T10:10:34", "latitude": 40.007288, "longitude": 116.319088, "altitude_ft": 125, "time_gap_seconds": 3.0, "distance_from_previous_m": 0.0, "speed_kmh": 0.0, "gps_jump": false, "distance_to_road_m": 70.915213230068204, "road_match_status": "VERY_FAR", "highway": "service", "maxspeed": null, "length": 161.0, "long_time_gap": false, "high_speed": false, "large_road_deviation": true, "gps_jump_flag": 0, "anomaly_signal_count": 1, "extreme_speed": false, "very_high_speed": false, "extreme_road_deviation": false, "very_large_road_deviation": false, "critical_time_gap": false, "high_time_gap": false, "severity": "LOW", "rule_anomaly_score": 0.25, "ml_anomaly": true, "ml_anomaly_score_raw": 0.56924646590736172, "ml_anomaly_score": 0.58293332132994591, "final_risk_score": 0.36121673671209442, "is_anomaly": false, "anomaly_reasons": [ "ROAD_DEVIATION", "ML_ANOMALY" ], "rule_flag": true, "ml_flag": true, "session_break": false, "session_number": 3, "patrol_id": "000_PATROL_0003", "anomaly_types": [ "ROUTE_DEVIATION" ], "median_speed_kmh": 7.2993050808918429, "median_time_gap_seconds": 5.0, "median_road_distance_m": 7.1863407943762212, "speed_deviation_kmh": 7.2993050808918429, "time_gap_deviation_seconds": 2.0, "road_distance_deviation_m": 63.728872435691983, "ml_prediction": -1, "hybrid_risk_score": 0.33948805569385559, "model_agreement": false, "hybrid_severity": "LOW", "incident_id": null, "rule_anomaly_flag": false, "ml_anomaly_flag": true, "rule_ml_agreement": false, "anomaly_reason": "Far From Road", "tuned_rule_score": 0.25, "ml_anomaly_label": -1, "ml_score_normalized": 0.4855837688012421, "hybrid_anomaly_score": 0.36779188440062105, "risk_level": "Medium", "detection_category": "Rule + ML", "tuned_rule_score_v2": 0.25, "far_from_road": true, "road_deviation_group": 6, "sustained_far_from_road": true, "final_rule_score": 0.25, "final_hybrid_score": 0.36779188440062105, "final_risk_level": "Medium", "final_anomaly": true }, "geometry": { "type": "Point", "coordinates": [ 116.319088, 40.007288 ] } },
{ "type": "Feature", "properties": { "guard_id": "000", "timestamp": "2008-10-23T10:10:36", "latitude": 40.007284, "longitude": 116.319084, "altitude_ft": 133, "time_gap_seconds": 2.0, "distance_from_previous_m": 0.56027538184440717, "speed_kmh": 1.0084956873199329, "gps_jump": false, "distance_to_road_m": 70.59650330690171, "road_match_status": "VERY_FAR", "highway": "service", "maxspeed": null, "length": 161.0, "long_time_gap": false, "high_speed": false, "large_road_deviation": true, "gps_jump_flag": 0, "anomaly_signal_count": 1, "extreme_speed": false, "very_high_speed": false, "extreme_road_deviation": false, "very_large_road_deviation": false, "critical_time_gap": false, "high_time_gap": false, "severity": "LOW", "rule_anomaly_score": 0.25, "ml_anomaly": true, "ml_anomaly_score_raw": 0.56896021221899762, "ml_anomaly_score": 0.57553842741899042, "final_risk_score": 0.36026550972177551, "is_anomaly": false, "anomaly_reasons": [ "ROAD_DEVIATION", "ML_ANOMALY" ], "rule_flag": true, "ml_flag": true, "session_break": false, "session_number": 3, "patrol_id": "000_PATROL_0003", "anomaly_types": [ "ROUTE_DEVIATION" ], "median_speed_kmh": 7.2993050808918429, "median_time_gap_seconds": 5.0, "median_road_distance_m": 7.1863407943762212, "speed_deviation_kmh": 6.2908093935719105, "time_gap_deviation_seconds": 3.0, "road_distance_deviation_m": 63.410162512525488, "ml_prediction": -1, "hybrid_risk_score": 0.33923973060377322, "model_agreement": false, "hybrid_severity": "LOW", "incident_id": null, "rule_anomaly_flag": false, "ml_anomaly_flag": true, "rule_ml_agreement": false, "anomaly_reason": "Far From Road", "tuned_rule_score": 0.25, "ml_anomaly_label": -1, "ml_score_normalized": 0.47024680731599755, "hybrid_anomaly_score": 0.36012340365799878, "risk_level": "Medium", "detection_category": "Rule + ML", "tuned_rule_score_v2": 0.25, "far_from_road": true, "road_deviation_group": 6, "sustained_far_from_road": true, "final_rule_score": 0.25, "final_hybrid_score": 0.36012340365799878, "final_risk_level": "Medium", "final_anomaly": true }, "geometry": { "type": "Point", "coordinates": [ 116.319084, 40.007284 ] } },
{ "type": "Feature", "properties": { "guard_id": "000", "timestamp": "2008-10-23T10:14:21", "latitude": 40.006977, "longitude": 116.319607, "altitude_ft": 134, "time_gap_seconds": 45.0, "distance_from_previous_m": 151.85965406118785, "speed_kmh": 12.148772324895027, "gps_jump": false, "distance_to_road_m": 32.052942008891499, "road_match_status": "FAR", "highway": "service", "maxspeed": null, "length": 161.0, "long_time_gap": false, "high_speed": false, "large_road_deviation": false, "gps_jump_flag": 0, "anomaly_signal_count": 0, "extreme_speed": false, "very_high_speed": false, "extreme_road_deviation": false, "very_large_road_deviation": false, "critical_time_gap": false, "high_time_gap": false, "severity": "LOW", "rule_anomaly_score": 0.0, "ml_anomaly": true, "ml_anomaly_score_raw": 0.63085286458806622, "ml_anomaly_score": 0.694910651869036, "final_risk_score": 0.37551925608782005, "is_anomaly": false, "anomaly_reasons": [ "ML_ANOMALY" ], "rule_flag": false, "ml_flag": true, "session_break": false, "session_number": 3, "patrol_id": "000_PATROL_0003", "anomaly_types": [ ], "median_speed_kmh": 7.2993050808918429, "median_time_gap_seconds": 5.0, "median_road_distance_m": 7.1863407943762212, "speed_deviation_kmh": 4.8494672440031845, "time_gap_deviation_seconds": 40.0, "road_distance_deviation_m": 24.866601214515278, "ml_prediction": -1, "hybrid_risk_score": 0.24293160986938403, "model_agreement": false, "hybrid_severity": "LOW", "incident_id": null, "rule_anomaly_flag": false, "ml_anomaly_flag": true, "rule_ml_agreement": false, "anomaly_reason": "Large Distance Jump", "tuned_rule_score": 0.25, "ml_anomaly_label": -1, "ml_score_normalized": 0.71782401813791052, "hybrid_anomaly_score": 0.48391200906895526, "risk_level": "Medium", "detection_category": "Rule + ML", "tuned_rule_score_v2": 0.25, "far_from_road": false, "road_deviation_group": 7, "sustained_far_from_road": false, "final_rule_score": 0.25, "final_hybrid_score": 0.48391200906895526, "final_risk_level": "Medium", "final_anomaly": true }, "geometry": { "type": "Point", "coordinates": [ 116.319607, 40.006977 ] } },
{ "type": "Feature", "properties": { "guard_id": "000", "timestamp": "2008-10-23T10:15:06", "latitude": 40.007399, "longitude": 116.31912, "altitude_ft": 131, "time_gap_seconds": 15.0, "distance_from_previous_m": 80.100342606437181, "speed_kmh": 19.224082225544922, "gps_jump": false, "distance_to_road_m": 67.97699607102038, "road_match_status": "VERY_FAR", "highway": "path", "maxspeed": null, "length": 54.0, "long_time_gap": false, "high_speed": true, "large_road_deviation": true, "gps_jump_flag": 0, "anomaly_signal_count": 2, "extreme_speed": false, "very_high_speed": false, "extreme_road_deviation": false, "very_large_road_deviation": false, "critical_time_gap": false, "high_time_gap": false, "severity": "MEDIUM", "rule_anomaly_score": 0.5, "ml_anomaly": true, "ml_anomaly_score_raw": 0.68012316938887751, "ml_anomaly_score": 0.70545554201537775, "final_risk_score": 0.6490465939783695, "is_anomaly": true, "anomaly_reasons": [ "ROAD_DEVIATION", "ML_ANOMALY" ], "rule_flag": true, "ml_flag": true, "session_break": false, "session_number": 3, "patrol_id": "000_PATROL_0003", "anomaly_types": [ "ROUTE_DEVIATION" ], "median_speed_kmh": 7.2993050808918429, "median_time_gap_seconds": 5.0, "median_road_distance_m": 7.1863407943762212, "speed_deviation_kmh": 11.924777144653079, "time_gap_deviation_seconds": 10.0, "road_distance_deviation_m": 60.790655276644159, "ml_prediction": -1, "hybrid_risk_score": 0.58567360193930329, "model_agreement": true, "hybrid_severity": "MEDIUM", "incident_id": "000_INC_0009", "rule_anomaly_flag": true, "ml_anomaly_flag": true, "rule_ml_agreement": true, "anomaly_reason": "Far From Road", "tuned_rule_score": 0.25, "ml_anomaly_label": -1, "ml_score_normalized": 0.739694051161776, "hybrid_anomaly_score": 0.494847025580888, "risk_level": "Medium", "detection_category": "Rule + ML", "tuned_rule_score_v2": 0.0, "far_from_road": false, "road_deviation_group": 9, "sustained_far_from_road": false, "final_rule_score": 0.0, "final_hybrid_score": 0.369847025580888, "final_risk_level": "Medium", "final_anomaly": true }, "geometry": { "type": "Point", "coordinates": [ 116.31912, 40.007399 ] } },
{ "type": "Feature", "properties": { "guard_id": "000", "timestamp": "2008-10-23T10:19:16", "latitude": 40.007645, "longitude": 116.319454, "altitude_ft": 121, "time_gap_seconds": 5.0, "distance_from_previous_m": 85.120643131446315, "speed_kmh": 61.286863054641344, "gps_jump": false, "distance_to_road_m": 51.471609320775599, "road_match_status": "VERY_FAR", "highway": "residential", "maxspeed": null, "length": 449.0, "long_time_gap": false, "high_speed": true, "large_road_deviation": true, "gps_jump_flag": 0, "anomaly_signal_count": 2, "extreme_speed": true, "very_high_speed": true, "extreme_road_deviation": false, "very_large_road_deviation": false, "critical_time_gap": false, "high_time_gap": false, "severity": "MEDIUM", "rule_anomaly_score": 0.5, "ml_anomaly": true, "ml_anomaly_score_raw": 0.72362280422748515, "ml_anomaly_score": 0.72292184149474947, "final_risk_score": 0.68059964953425478, "is_anomaly": true, "anomaly_reasons": [ "HIGH_SPEED", "ROAD_DEVIATION", "ML_ANOMALY" ], "rule_flag": true, "ml_flag": true, "session_break": false, "session_number": 3, "patrol_id": "000_PATROL_0003", "anomaly_types": [ "ROUTE_DEVIATION" ], "median_speed_kmh": 7.2993050808918429, "median_time_gap_seconds": 5.0, "median_road_distance_m": 7.1863407943762212, "speed_deviation_kmh": 53.987557973749503, "time_gap_deviation_seconds": 0.0, "road_distance_deviation_m": 44.285268526399378, "ml_prediction": -1, "hybrid_risk_score": 0.62340953750602501, "model_agreement": true, "hybrid_severity": "MEDIUM", "incident_id": "000_INC_0009", "rule_anomaly_flag": true, "ml_anomaly_flag": true, "rule_ml_agreement": true, "anomaly_reason": "Far From Road", "tuned_rule_score": 0.5, "ml_anomaly_label": -1, "ml_score_normalized": 0.7759190417607631, "hybrid_anomaly_score": 0.63795952088038155, "risk_level": "High", "detection_category": "Rule + ML", "tuned_rule_score_v2": 0.25, "far_from_road": false, "road_deviation_group": 9, "sustained_far_from_road": false, "final_rule_score": 0.25, "final_hybrid_score": 0.51295952088038155, "final_risk_level": "High", "final_anomaly": true }, "geometry": { "type": "Point", "coordinates": [ 116.319454, 40.007645 ] } },
{ "type": "Feature", "properties": { "guard_id": "000", "timestamp": "2008-10-23T10:26:35", "latitude": 40.006747, "longitude": 116.318549, "altitude_ft": 7584, "time_gap_seconds": 319.0, "distance_from_previous_m": 226.99695508305678, "speed_kmh": 2.5617211231943715, "gps_jump": false, "distance_to_road_m": 32.010601189274901, "road_match_status": "FAR", "highway": "service", "maxspeed": null, "length": 121.0, "long_time_gap": true, "high_speed": false, "large_road_deviation": false, "gps_jump_flag": 0, "anomaly_signal_count": 1, "extreme_speed": false, "very_high_speed": false, "extreme_road_deviation": false, "very_large_road_deviation": false, "critical_time_gap": false, "high_time_gap": true, "severity": "MEDIUM", "rule_anomaly_score": 0.25, "ml_anomaly": true, "ml_anomaly_score_raw": 0.6987397264748012, "ml_anomaly_score": 0.74867154384797141, "final_risk_score": 0.52091676828307376, "is_anomaly": true, "anomaly_reasons": [ "LONG_GPS_GAP", "ML_ANOMALY" ], "rule_flag": true, "ml_flag": true, "session_break": false, "session_number": 3, "patrol_id": "000_PATROL_0003", "anomaly_types": [ "LONG_TIME_GAP" ], "median_speed_kmh": 7.2993050808918429, "median_time_gap_seconds": 5.0, "median_road_distance_m": 7.1863407943762212, "speed_deviation_kmh": 4.7375839576974714, "time_gap_deviation_seconds": 314.0, "road_distance_deviation_m": 24.82426039489868, "ml_prediction": -1, "hybrid_risk_score": 0.45182346621460312, "model_agreement": false, "hybrid_severity": "MEDIUM", "incident_id": "000_INC_0010", "rule_anomaly_flag": false, "ml_anomaly_flag": true, "rule_ml_agreement": false, "anomaly_reason": "Large Time Gap, Large Distance Jump", "tuned_rule_score": 0.5, "ml_anomaly_label": -1, "ml_score_normalized": 0.82932375560835436, "hybrid_anomaly_score": 0.66466187780417718, "risk_level": "High", "detection_category": "Rule + ML", "tuned_rule_score_v2": 0.5, "far_from_road": false, "road_deviation_group": 9, "sustained_far_from_road": false, "final_rule_score": 0.5, "final_hybrid_score": 0.66466187780417718, "final_risk_level": "High", "final_anomaly": true }, "geometry": { "type": "Point", "coordinates": [ 116.318549, 40.006747 ] } },
{ "type": "Feature", "properties": { "guard_id": "000", "timestamp": "2008-10-23T10:28:45", "latitude": 40.007457, "longitude": 116.319674, "altitude_ft": 573, "time_gap_seconds": 10.0, "distance_from_previous_m": 62.586074819451454, "speed_kmh": 22.530986935002524, "gps_jump": false, "distance_to_road_m": 73.292996592760815, "road_match_status": "VERY_FAR", "highway": "residential", "maxspeed": null, "length": 449.0, "long_time_gap": false, "high_speed": true, "large_road_deviation": true, "gps_jump_flag": 0, "anomaly_signal_count": 2, "extreme_speed": false, "very_high_speed": false, "extreme_road_deviation": false, "very_large_road_deviation": false, "critical_time_gap": false, "high_time_gap": false, "severity": "MEDIUM", "rule_anomaly_score": 0.5, "ml_anomaly": true, "ml_anomaly_score_raw": 0.69991885804534049, "ml_anomaly_score": 0.70544384973795249, "final_risk_score": 0.6665816889572278, "is_anomaly": true, "anomaly_reasons": [ "ROAD_DEVIATION", "ML_ANOMALY" ], "rule_flag": true, "ml_flag": true, "session_break": false, "session_number": 3, "patrol_id": "000_PATROL_0003", "anomaly_types": [ "ROUTE_DEVIATION" ], "median_speed_kmh": 7.2993050808918429, "median_time_gap_seconds": 5.0, "median_road_distance_m": 7.1863407943762212, "speed_deviation_kmh": 15.231681854110681, "time_gap_deviation_seconds": 5.0, "road_distance_deviation_m": 66.106655798384594, "ml_prediction": -1, "hybrid_risk_score": 0.60284636291559024, "model_agreement": true, "hybrid_severity": "MEDIUM", "incident_id": "000_INC_0011", "rule_anomaly_flag": true, "ml_anomaly_flag": true, "rule_ml_agreement": true, "anomaly_reason": "Far From Road", "tuned_rule_score": 0.25, "ml_anomaly_label": -1, "ml_score_normalized": 0.73966980145505867, "hybrid_anomaly_score": 0.49483490072752934, "risk_level": "Medium", "detection_category": "Rule + ML", "tuned_rule_score_v2": 0.25, "far_from_road": true, "road_deviation_group": 10, "sustained_far_from_road": true, "final_rule_score": 0.25, "final_hybrid_score": 0.49483490072752934, "final_risk_level": "Medium", "final_anomaly": true }, "geometry": { "type": "Point", "coordinates": [ 116.319674, 40.007457 ] } },
{ "type": "Feature", "properties": { "guard_id": "000", "timestamp": "2008-10-23T10:28:48", "latitude": 40.007457, "longitude": 116.319674, "altitude_ft": 573, "time_gap_seconds": 3.0, "distance_from_previous_m": 0.0, "speed_kmh": 0.0, "gps_jump": false, "distance_to_road_m": 73.292996592760815, "road_match_status": "VERY_FAR", "highway": "residential", "maxspeed": null, "length": 449.0, "long_time_gap": false, "high_speed": false, "large_road_deviation": true, "gps_jump_flag": 0, "anomaly_signal_count": 1, "extreme_speed": false, "very_high_speed": false, "extreme_road_deviation": false, "very_large_road_deviation": false, "critical_time_gap": false, "high_time_gap": false, "severity": "MEDIUM", "rule_anomaly_score": 0.25, "ml_anomaly": true, "ml_anomaly_score_raw": 0.58849800711450295, "ml_anomaly_score": 0.59538141890563467, "final_risk_score": 0.40577369488308723, "is_anomaly": true, "anomaly_reasons": [ "ROAD_DEVIATION", "ML_ANOMALY" ], "rule_flag": true, "ml_flag": true, "session_break": false, "session_number": 3, "patrol_id": "000_PATROL_0003", "anomaly_types": [ "ROUTE_DEVIATION" ], "median_speed_kmh": 7.2993050808918429, "median_time_gap_seconds": 5.0, "median_road_distance_m": 7.1863407943762212, "speed_deviation_kmh": 7.2993050808918429, "time_gap_deviation_seconds": 2.0, "road_distance_deviation_m": 66.106655798384594, "ml_prediction": -1, "hybrid_risk_score": 0.35618876872853134, "model_agreement": false, "hybrid_severity": "LOW", "incident_id": "000_INC_0011", "rule_anomaly_flag": false, "ml_anomaly_flag": true, "rule_ml_agreement": false, "anomaly_reason": "Far From Road", "tuned_rule_score": 0.25, "ml_anomaly_label": -1, "ml_score_normalized": 0.51140104155481914, "hybrid_anomaly_score": 0.38070052077740957, "risk_level": "Medium", "detection_category": "Rule + ML", "tuned_rule_score_v2": 0.25, "far_from_road": true, "road_deviation_group": 10, "sustained_far_from_road": true, "final_rule_score": 0.25, "final_hybrid_score": 0.38070052077740957, "final_risk_level": "Medium", "final_anomaly": true }, "geometry": { "type": "Point", "coordinates": [ 116.319674, 40.007457 ] } },
{ "type": "Feature", "properties": { "guard_id": "000", "timestamp": "2008-10-23T10:28:50", "latitude": 40.007458, "longitude": 116.319676, "altitude_ft": 576, "time_gap_seconds": 2.0, "distance_from_previous_m": 0.2036929505289434, "speed_kmh": 0.36664731095209813, "gps_jump": false, "distance_to_road_m": 73.191078746303106, "road_match_status": "VERY_FAR", "highway": "residential", "maxspeed": null, "length": 449.0, "long_time_gap": false, "high_speed": false, "large_road_deviation": true, "gps_jump_flag": 0, "anomaly_signal_count": 1, "extreme_speed": false, "very_high_speed": false, "extreme_road_deviation": false, "very_large_road_deviation": false, "critical_time_gap": false, "high_time_gap": false, "severity": "MEDIUM", "rule_anomaly_score": 0.25, "ml_anomaly": true, "ml_anomaly_score_raw": 0.5977465215545158, "ml_anomaly_score": 0.6059329938537199, "final_risk_score": 0.41493620427333688, "is_anomaly": true, "anomaly_reasons": [ "ROAD_DEVIATION", "ML_ANOMALY" ], "rule_flag": true, "ml_flag": true, "session_break": false, "session_number": 3, "patrol_id": "000_PATROL_0003", "anomaly_types": [ "ROUTE_DEVIATION" ], "median_speed_kmh": 7.2993050808918429, "median_time_gap_seconds": 5.0, "median_road_distance_m": 7.1863407943762212, "speed_deviation_kmh": 6.9326577699397447, "time_gap_deviation_seconds": 3.0, "road_distance_deviation_m": 66.004737951926884, "ml_prediction": -1, "hybrid_risk_score": 0.36421185550365209, "model_agreement": false, "hybrid_severity": "LOW", "incident_id": "000_INC_0011", "rule_anomaly_flag": false, "ml_anomaly_flag": true, "rule_ml_agreement": false, "anomaly_reason": "Far From Road", "tuned_rule_score": 0.25, "ml_anomaly_label": -1, "ml_score_normalized": 0.53328493881367023, "hybrid_anomaly_score": 0.39164246940683511, "risk_level": "Medium", "detection_category": "Rule + ML", "tuned_rule_score_v2": 0.25, "far_from_road": true, "road_deviation_group": 10, "sustained_far_from_road": true, "final_rule_score": 0.25, "final_hybrid_score": 0.39164246940683511, "final_risk_level": "Medium", "final_anomaly": true }, "geometry": { "type": "Point", "coordinates": [ 116.319676, 40.007458 ] } },
{ "type": "Feature", "properties": { "guard_id": "000", "timestamp": "2008-10-23T10:44:31", "latitude": 40.008761, "longitude": 116.323722, "altitude_ft": 377, "time_gap_seconds": 671.0, "distance_from_previous_m": 121.91742692990479, "speed_kmh": 0.65410243956431779, "gps_jump": false, "distance_to_road_m": 22.854006894453654, "road_match_status": "ACCEPTABLE", "highway": "footway", "maxspeed": null, "length": 223.0, "long_time_gap": true, "high_speed": false, "large_road_deviation": false, "gps_jump_flag": 0, "anomaly_signal_count": 1, "extreme_speed": false, "very_high_speed": false, "extreme_road_deviation": false, "very_large_road_deviation": false, "critical_time_gap": false, "high_time_gap": true, "severity": "MEDIUM", "rule_anomaly_score": 0.25, "ml_anomaly": true, "ml_anomaly_score_raw": 0.7006833899515198, "ml_anomaly_score": 0.74825851069866456, "final_risk_score": 0.52571357332063851, "is_anomaly": true, "anomaly_reasons": [ "LONG_GPS_GAP", "ML_ANOMALY" ], "rule_flag": true, "ml_flag": true, "session_break": false, "session_number": 3, "patrol_id": "000_PATROL_0003", "anomaly_types": [ "LONG_TIME_GAP" ], "median_speed_kmh": 7.2993050808918429, "median_time_gap_seconds": 5.0, "median_road_distance_m": 7.1863407943762212, "speed_deviation_kmh": 6.6452026413275256, "time_gap_deviation_seconds": 666.0, "road_distance_deviation_m": 15.667666100077433, "ml_prediction": -1, "hybrid_risk_score": 0.45350959438540195, "model_agreement": false, "hybrid_severity": "MEDIUM", "incident_id": "000_INC_0012", "rule_anomaly_flag": false, "ml_anomaly_flag": true, "rule_ml_agreement": false, "anomaly_reason": "Large Time Gap, Large Distance Jump", "tuned_rule_score": 0.25, "ml_anomaly_label": -1, "ml_score_normalized": 0.82846712756482521, "hybrid_anomaly_score": 0.53923356378241261, "risk_level": "High", "detection_category": "Rule + ML", "tuned_rule_score_v2": 0.25, "far_from_road": false, "road_deviation_group": 11, "sustained_far_from_road": false, "final_rule_score": 0.25, "final_hybrid_score": 0.53923356378241261, "final_risk_level": "High", "final_anomaly": true }, "geometry": { "type": "Point", "coordinates": [ 116.323722, 40.008761 ] } },
{ "type": "Feature", "properties": { "guard_id": "000", "timestamp": "2008-10-23T11:08:22", "latitude": 40.008851, "longitude": 116.321485, "altitude_ft": 94, "time_gap_seconds": 1331.0, "distance_from_previous_m": 11.861400659813565, "speed_kmh": 0.032081925150510018, "gps_jump": false, "distance_to_road_m": 9.4060384379830069, "road_match_status": "GOOD", "highway": "footway", "maxspeed": null, "length": 40.0, "long_time_gap": true, "high_speed": false, "large_road_deviation": false, "gps_jump_flag": 0, "anomaly_signal_count": 1, "extreme_speed": false, "very_high_speed": false, "extreme_road_deviation": false, "very_large_road_deviation": false, "critical_time_gap": true, "high_time_gap": true, "severity": "MEDIUM", "rule_anomaly_score": 0.25, "ml_anomaly": true, "ml_anomaly_score_raw": 0.67960536263952676, "ml_anomaly_score": 0.69800665369669801, "final_risk_score": 0.47200161897752368, "is_anomaly": true, "anomaly_reasons": [ "LONG_GPS_GAP", "ML_ANOMALY" ], "rule_flag": true, "ml_flag": true, "session_break": false, "session_number": 3, "patrol_id": "000_PATROL_0003", "anomaly_types": [ "LONG_TIME_GAP" ], "median_speed_kmh": 7.2993050808918429, "median_time_gap_seconds": 5.0, "median_road_distance_m": 7.1863407943762212, "speed_deviation_kmh": 7.2672231557413332, "time_gap_deviation_seconds": 1326.0, "road_distance_deviation_m": 2.2196976436067857, "ml_prediction": -1, "hybrid_risk_score": 0.4352244045563366, "model_agreement": false, "hybrid_severity": "MEDIUM", "incident_id": "000_INC_0013", "rule_anomaly_flag": false, "ml_anomaly_flag": true, "rule_ml_agreement": false, "anomaly_reason": "Large Time Gap", "tuned_rule_score": 0.25, "ml_anomaly_label": -1, "ml_score_normalized": 0.72424510562893629, "hybrid_anomaly_score": 0.48712255281446815, "risk_level": "Medium", "detection_category": "Rule + ML", "tuned_rule_score_v2": 0.25, "far_from_road": false, "road_deviation_group": 11, "sustained_far_from_road": false, "final_rule_score": 0.25, "final_hybrid_score": 0.48712255281446815, "final_risk_level": "Medium", "final_anomaly": true }, "geometry": { "type": "Point", "coordinates": [ 116.321485, 40.008851 ] } }
]
}
