{
"type": "FeatureCollection",
"name": "final_actionable_events",
"crs": { "type": "name", "properties": { "name": "urn:ogc:def:crs:OGC:1.3:CRS84" } },
"features": [
{ "type": "Feature", "properties": { "guard_id": "000", "patrol_id": "000_PATROL_0002", "session_number": 2, "event_id": 1, "start_time": "2008-10-23T04:08:07", "end_time": "2008-10-23T04:08:42", "anomaly_points": 3, "event_risk_level": "Critical", "event_classification": "Strong Anomaly", "max_speed_kmh": 218.14717352159428, "max_distance_jump_m": 1817.8931126799523, "max_distance_to_road_m": 10.987361234294788, "max_hybrid_score": 0.75, "description": "Extreme speed detected with a large distance jump.", "alert_status": "Immediate Alert", "latitude": 39.995777, "longitude": 116.286798 }, "geometry": { "type": "Point", "coordinates": [ 116.286798, 39.995777 ] } },
{ "type": "Feature", "properties": { "guard_id": "000", "patrol_id": "000_PATROL_0003", "session_number": 3, "event_id": 1, "start_time": "2008-10-23T09:42:25", "end_time": "2008-10-23T09:42:25", "anomaly_points": 1, "event_risk_level": "Critical", "event_classification": "Strong Anomaly", "max_speed_kmh": 0.13402493885805766, "max_distance_jump_m": 686.98949909659393, "max_distance_to_road_m": 0.0076362369313939873, "max_hybrid_score": 0.73879396915165985, "description": "Large GPS displacement detected between consecutive observations.", "alert_status": "Immediate Alert", "latitude": 40.004775, "longitude": 116.320158 }, "geometry": { "type": "Point", "coordinates": [ 116.320158, 40.004775 ] } },
{ "type": "Feature", "properties": { "guard_id": "000", "patrol_id": "000_PATROL_0003", "session_number": 3, "event_id": 7, "start_time": "2008-10-23T10:26:35", "end_time": "2008-10-23T10:26:35", "anomaly_points": 1, "event_risk_level": "High", "event_classification": "Strong Anomaly", "max_speed_kmh": 2.5617211231943715, "max_distance_jump_m": 226.99695508305678, "max_distance_to_road_m": 32.010601189274901, "max_hybrid_score": 0.66466187780417718, "description": "Large distance jump detected between consecutive observations.", "alert_status": "Review Required", "latitude": 40.006747, "longitude": 116.318549 }, "geometry": { "type": "Point", "coordinates": [ 116.318549, 40.006747 ] } },
{ "type": "Feature", "properties": { "guard_id": "000", "patrol_id": "000_PATROL_0003", "session_number": 3, "event_id": 9, "start_time": "2008-10-23T10:44:31", "end_time": "2008-10-23T10:44:31", "anomaly_points": 1, "event_risk_level": "High", "event_classification": "Likely Anomaly", "max_speed_kmh": 0.65410243956431779, "max_distance_jump_m": 121.91742692990479, "max_distance_to_road_m": 22.854006894453654, "max_hybrid_score": 0.53923356378241261, "description": "Multiple abnormal movement signals detected; manual verification recommended.", "alert_status": "Review Required", "latitude": 40.008761, "longitude": 116.323722 }, "geometry": { "type": "Point", "coordinates": [ 116.323722, 40.008761 ] } },
{ "type": "Feature", "properties": { "guard_id": "000", "patrol_id": "000_PATROL_0003", "session_number": 3, "event_id": 6, "start_time": "2008-10-23T10:19:16", "end_time": "2008-10-23T10:19:16", "anomaly_points": 1, "event_risk_level": "High", "event_classification": "Strong Anomaly", "max_speed_kmh": 61.286863054641344, "max_distance_jump_m": 85.120643131446315, "max_distance_to_road_m": 51.471609320775599, "max_hybrid_score": 0.51295952088038155, "description": "Unusually high movement speed detected.", "alert_status": "Review Required", "latitude": 40.007645, "longitude": 116.319454 }, "geometry": { "type": "Point", "coordinates": [ 116.319454, 40.007645 ] } },
{ "type": "Feature", "properties": { "guard_id": "000", "patrol_id": "000_PATROL_0002", "session_number": 2, "event_id": 2, "start_time": "2008-10-23T04:11:22", "end_time": "2008-10-23T04:11:22", "anomaly_points": 1, "event_risk_level": "High", "event_classification": "Strong Anomaly", "max_speed_kmh": 75.080579898777756, "max_distance_jump_m": 104.27858319274689, "max_distance_to_road_m": 0.94174449810328098, "max_hybrid_score": 0.50108985246144599, "description": "Unusually high movement speed detected.", "alert_status": "Review Required", "latitude": 39.983841, "longitude": 116.299902 }, "geometry": { "type": "Point", "coordinates": [ 116.299902, 39.983841 ] } }
]
}
